BEIDOU 3 (C01)          
1 36287U 10001A   21015.91418135 -.00000288  00000-0  00000-0 0  9998
2 36287   1.6576  39.5714 0003390 110.2071  75.2638  1.00268918 40335
BEIDOU 5 (C06)          
1 36828U 10036A   21016.53525309 -.00000077  00000-0  00000+0 0  9993
2 36828  54.1708 180.9958 0101242 233.2340  11.0741  1.00249242 38381
BEIDOU 6 (C04)          
1 37210U 10057A   21015.84631168 -.00000118  00000-0  00000-0 0  9993
2 37210   0.8772  50.0463 0005807 190.8825 339.2739  1.00271822 37447
BEIDOU 7 (C07)          
1 37256U 10068A   21015.86949682 -.00000210  00000-0  00000+0 0  9992
2 37256  51.1226 295.8136 0082597 217.2151  30.3271  1.00305726 36959
BEIDOU 8 (C08)          
1 37384U 11013A   21016.46345172 -.00000191  00000-0  00000+0 0  9994
2 37384  59.5711  59.4357 0055721 205.5109 135.1237  1.00296470 35830
BEIDOU 9 (C09)          
1 37763U 11038A   21016.27496831 -.00000027  00000-0  00000+0 0  9998
2 37763  54.4577 183.4143 0073272 223.0044 259.7853  1.00251470 34815
BEIDOU 10 (C10)         
1 37948U 11073A   21016.26874378 -.00000150  00000-0  00000+0 0  9994
2 37948  51.2267 295.4222 0070491 216.1061 156.0044  1.00287439 33572
BEIDOU 11 (C05)         
1 38091U 12008A   21015.89786818  .00000049  00000-0  00000-0 0  9999
2 38091   1.9306  71.0887 0003879 239.0887 187.3253  1.00274105 32641
BEIDOU 12 (C11)         
1 38250U 12018A   21015.72301966 -.00000097  00000-0  00000-0 0  9990
2 38250  56.7548  10.6558 0024638 248.7190 246.3045  1.86234296 59441
BEIDOU 13 (C12)         
1 38251U 12018B   21015.69014786 -.00000097  00000-0  00000-0 0  9998
2 38251  56.6787  10.0152 0016016 252.6218 264.8066  1.86233681 59441
BEIDOU 15 (C14)         
1 38775U 12050B   21015.72771990 -.00000010  00000-0  00000-0 0  9991
2 38775  55.1422 129.1346 0012651 321.4647  58.5192  1.86232285 56827
BEIDOU 16 (C02)         
1 38953U 12059A   21015.99052267 -.00000182  00000-0  00000-0 0  9996
2 38953   1.6064  84.8495 0009031 260.7670 210.5875  1.00272748 30211
BEIDOU 17 (C31)         
1 40549U 15019A   21016.00560855 -.00000170  00000-0  00000+0 0  9995
2 40549  52.7370 318.7518 0036991 189.7920  61.2774  1.00298521 21249
BEIDOU 18 (C57)         
1 40748U 15037A   21016.12008678 -.00000099  00000-0  00000+0 0  9999
2 40748  55.9441   9.1795 0004370 322.6792  33.0920  1.86233438 37273
BEIDOU 19 (C58)         
1 40749U 15037B   21016.21167726 -.00000098  00000-0  00000+0 0  9999
2 40749  55.9473   9.1646 0007178 298.3971 255.5385  1.86232174 37273
BEIDOU 20 (C18)         
1 40938U 15053A   21016.26207943 -.00000125  00000-0  00000+0 0  9999
2 40938  52.2969 281.8056 0046038 191.1113 193.8190  1.00270763 19532
BEIDOU IGSO-6 (C13)     
1 41434U 16021A   21016.53197059 -.00000137  00000-0  00000+0 0  9996
2 41434  57.3403  58.2489 0043034 210.5476 131.4141  1.00258628 17640
BEIDOU-2 G7 (C03)       
1 41586U 16037A   21016.48243707 -.00000360  00000-0  00000+0 0  9995
2 41586   1.9359  69.3313 0008755 359.5705 331.4335  1.00271914 16955
BEIDOU-3 M1 (C19)       
1 43001U 17069A   21015.55678948 -.00000011  00000-0  00000-0 0  9995
2 43001  55.2968 129.0715 0008002 284.2582 137.5500  1.86231622 21758
BEIDOU-3 M2 (C20)       
1 43002U 17069B   21016.51967453 -.00000005  00000-0  00000+0 0  9997
2 43002  55.2966 129.0740 0006732 312.8362  78.1839  1.86231423 21762
BEIDOU-3 M3 (C27)       
1 43107U 18003A   21016.30064866 -.00000099  00000-0  00000+0 0  9998
2 43107  55.3834  10.3217 0003650  24.7055  25.3411  1.86232527 20527
BEIDOU-3 M4 (C28)       
1 43108U 18003B   21016.18770839 -.00000100  00000-0  00000+0 0  9992
2 43108  55.3769  10.3166 0004520 252.7077 126.8029  1.86232584 20527
BEIDOU-3 M5 (C21)       
1 43207U 18018A   21015.53208970 -.00000012  00000-0  00000-0 0  9991
2 43207  55.2555 129.2032 0004798 335.6374  24.3196  1.86231514 19896
BEIDOU-3 M6 (C22)       
1 43208U 18018B   21015.59883305 -.00000011  00000-0  00000-0 0  9998
2 43208  55.2550 129.2059 0006822 295.7808  64.1290  1.86231654 19891
BEIDOU-3 M7 (C29)       
1 43245U 18029A   21015.60504248 -.00000101  00000-0  00000-0 0  9999
2 43245  55.3216   8.1450 0001648 282.0065 291.7925  1.86232704 19044
BEIDOU-3 M8 (C30)       
1 43246U 18029B   21016.40712315 -.00000100  00000-0  10000-3 0  9998
2 43246  55.3199   8.1503 0004912 329.2586 108.3635  1.86232884 19054
BEIDOU IGSO-7 (C16)     
1 43539U 18057A   21016.53555403 -.00000102  00000-0  00000+0 0  9998
2 43539  55.0511 180.3209 0031049 211.9398  30.7828  1.00259781  9321
BEIDOU-3 M9 (C23)       
1 43581U 18062A   21016.40558050  .00000013  00000-0  00000+0 0  9998
2 43581  54.4651 249.8186 0003258 308.1430 338.1696  1.86231802 16793
BEIDOU-3 M10 (C24)      
1 43582U 18062B   21015.73281061  .00000018  00000-0  00000-0 0  9995
2 43582  54.4660 249.8317 0006540   3.5327 282.9274  1.86232306 16785
BEIDOU-3 M11 (C25)      
1 43602U 18067A   21015.77543397  .00000020  00000-0  00000-0 0  9993
2 43602  54.5391 248.4013 0007573   0.6779 356.8400  1.86231559 16279
BEIDOU-3 M12 (C26)      
1 43603U 18067B   21016.05024234  .00000018  00000-0  00000+0 0  9996
2 43603  54.5362 248.3582 0004874 354.6772  97.5791  1.86231466 16307
BEIDOU-3 M13 (C32)      
1 43622U 18072A   21015.78922662 -.00000010  00000-0  00000-0 0  9998
2 43622  55.2200 128.7681 0004875 278.5014  29.1232  1.86231509 15805
BEIDOU-3 M14 (C33)      
1 43623U 18072B   21015.74887612 -.00000010  00000-0  00000-0 0  9990
2 43623  55.2210 128.7612 0003349 313.5585  57.2433  1.86231392 15815
BEIDOU-3 M15 (C34)      
1 43647U 18078A   21015.69028822 -.00000101  00000-0  10000-3 0  9991
2 43647  55.2143   8.3444 0007136 339.0880 247.5995  1.86232531 15319
BEIDOU-3 M16 (C35)      
1 43648U 18078B   21016.09475388 -.00000100  00000-0  10000-3 0  9999
2 43648  55.2106   8.3386 0004905 343.2359  63.3458  1.86232052 15342
BEIDOU-3 G1 (C59)       
1 43683U 18085A   21015.63116584 -.00000284  00000-0  00000-0 0  9994
2 43683   1.3254 242.4303 0003310  19.5554 220.4933  1.00272648  8220
BEIDOU-3 M17 (C36)      
1 43706U 18093A   21016.43673468  .00000013  00000-0  00000+0 0  9995
2 43706  54.5452 249.6648 0008628 279.9678 252.1960  1.86231864 14692
BEIDOU-3 M18 (C37)      
1 43707U 18093B   21016.24345368  .00000015  00000-0  00000+0 0  9992
2 43707  54.5466 249.6632 0008175 307.2818 186.0061  1.86232106 14696
BEIDOU-3 IGSO-1 (C38)   
1 44204U 19023A   21016.39512654 -.00000211  00000-0  00000+0 0  9998
2 44204  55.7995  58.5763 0017842 200.8913 112.6910  1.00285283  6527
BEIDOU-2 G8             
1 44231U 19027A   21015.77146312 -.00000253  00000-0  00000-0 0  9994
2 44231   0.5154 309.8056 0007810 270.6979 317.1114  1.00275981  6241
BEIDOU-3 IGSO-2 (C39)   
1 44337U 19035A   21015.45256545 -.00000101  00000-0  00000-0 0  9997
2 44337  55.0916 176.3779 0016497 184.0091  25.2350  1.00277163  5851
BEIDOU-3 M23 (C45)      
1 44542U 19061A   21015.45703181  .00000022  00000-0  10000-3 0  9992
2 44542  54.7702 249.7387 0009079 339.1624 300.4076  1.86231368  8937
BEIDOU-3 M24 (C46)      
1 44543U 19061B   21016.52566831  .00000013  00000-0  10000-3 0  9991
2 44543  54.7682 249.6730 0006070 336.2742 210.4165  1.86231731  8969
BEIDOU-3 IGSO-3         
1 44709U 19073A   21015.71371428 -.00000176  00000-0  00000-0 0  9991
2 44709  58.0800 301.7321 0019485 195.7773 342.7349  1.00269767  4611
BEIDOU-3 M21            
1 44793U 19078A   21016.07594988 -.00000101  00000-0  10000-3 0  9999
2 44793  55.0638   8.4159 0006891 345.3033  94.5878  1.86232055  7817
BEIDOU-3 M22            
1 44794U 19078B   21016.10404774 -.00000101  00000-0  10000-3 0  9997
2 44794  55.0382   8.4175 0005023 337.5999  31.8192  1.86232677  7815
BEIDOU-3 M19            
1 44864U 19090A   21015.89499300 -.00000009  00000-0  00000-0 0  9996
2 44864  55.1544 129.0048 0014619 260.3475 163.5472  1.86231748  7391
BEIDOU-3 M20            
1 44865U 19090B   21016.32236242 -.00000006  00000-0  00000+0 0  9996
2 44865  55.1572 129.0213 0013198 276.8946 163.4590  1.86231725  7387
BEIDOU-3 G2             
1 45344U 20017A   21016.17896803 -.00000144  00000-0  00000+0 0  9991
2 45344   2.6366 332.7051 0000870   4.4535 283.1184  1.00272441  3430
BEIDOU-3 G3             
1 45807U 20040A   21015.90816205 -.00000357  00000-0  00000-0 0  9996
2 45807   2.6347 298.4006 0010201  13.8567 240.7682  1.00269430  2243
